STARLINK-4497           
1 53411U 22097Z   26068.51824211  .00001974  00000+0  14201-3 0  9991
2 53411  53.2164 114.8896 0001261  91.3965 268.7172 15.08861686198625
2023-069B               
1 56732U 23069B   26068.54706144  .00006772  00000+0  42420-3 0  9992
2 56732  41.0081 274.4606 0011652 279.7432  80.2064 15.09579619155167
